IRIDIUM 155             
1 43573U 18061E   23255.60716663  .00000352  00000+0  11858-3 0  9995
2 43573  86.3945 118.2443 0002327  83.3886 276.7575 14.34218779268799
IRIDIUM 154             
1 43574U 18061F   23255.58812990  .00000322  00000+0  10807-3 0  9993
2 43574  86.3949 118.3368 0001967  92.9678 267.1742 14.34218988268843
IRIDIUM 163             
1 43575U 18061G   23255.56910655  .00000348  00000+0  11723-3 0  9995
2 43575  86.3946 118.2914 0001998  87.4121 272.7303 14.34218894268811
IRIDIUM 156             
1 43576U 18061H   23255.61350322  .00000356  00000+0  11993-3 0  9999
2 43576  86.3945 118.2787 0002084  78.2819 281.8610 14.34219097268816
IRIDIUM 164             
1 43577U 18061J   23255.59446665  .00000333  00000+0  11182-3 0  9998
2 43577  86.3947 118.3114 0001868  81.6312 278.5095 14.34221368268857
IRIDIUM 159             
1 43578U 18061K   23255.56276368  .00000352  00000+0  11857-3 0  9997
2 43578  86.3945 118.2827 0002125  87.8480 272.2959 14.34218635268816
IRIDIUM 180             
1 43922U 19002A   23255.49248347  .00000120  00000+0  35764-4 0  9991
2 43922  86.3944  55.1404 0001936  95.2739 264.8678 14.34219510244415
IRIDIUM 176             
1 43923U 19002B   23255.51820485  .00000572  00000+0  86823-4 0  9997
2 43923  86.6074  55.1644 0002261  90.3224 269.8252 14.72258242250840
IRIDIUM 168             
1 43924U 19002C   23255.48615527  .00000131  00000+0  39703-4 0  9999
2 43924  86.3945  55.1918 0002038  92.8270 267.3159 14.34217416244397
IRIDIUM 173             
1 43925U 19002D   23255.54324298  .00000124  00000+0  37042-4 0  9995
2 43925  86.3941  55.0981 0002106  94.0934 266.0502 14.34218646244383
IRIDIUM 169             
1 43926U 19002E   23255.55441495  .00000151  00000+0  42682-4 0  9992
2 43926  86.4168  86.7310 0005348  75.2144 284.9647 14.38620126245214
IRIDIUM 172             
1 43927U 19002F   23255.53687540  .00000125  00000+0  37397-4 0  9992
2 43927  86.3943  55.1057 0002013  94.1584 265.9841 14.34216297244396
IRIDIUM 175             
1 43928U 19002G   23255.44400056  .00001597  00000+0  24924-3 0  9993
2 43928  86.1509  44.0914 0002216  91.6412 268.5058 14.72269129250827
IRIDIUM 171             
1 43929U 19002H   23255.51785727  .00000120  00000+0  35919-4 0  9991
2 43929  86.3952  55.3082 0001921  93.0097 267.1319 14.34218910244389
IRIDIUM 170             
1 43930U 19002J   23255.52435664  .00000563  00000+0  85331-4 0  9990
2 43930  86.6074  55.1666 0002328  88.5801 271.5683 14.72260619250856
IRIDIUM 167             
1 43931U 19002K   23255.51151817  .00000139  00000+0  42483-4 0  9995
2 43931  86.3942  55.1297 0001960  91.9203 268.2217 14.34218530244383
IRIDIUM 181             
1 56726U 23068S   23255.52380546  .00000038  00000+0  53624-5 0  9990
2 56726  86.8573  95.3795 0001843  48.8285 311.3075 14.43569740 16936
IRIDIUM 177             
1 56727U 23068T   23255.57132285  .00000666  00000+0  84167-4 0  9993
2 56727  86.1925  87.6398 0001995  94.8910 265.2539 14.80212667 17160
IRIDIUM 174             
1 56728U 23068U   23255.56588877  .00000660  00000+0  83410-4 0  9999
2 56728  86.1931  87.7234 0002404  90.4357 269.7139 14.80212452 17168
IRIDIUM 178             
1 56729U 23068V   23255.56009871  .00000624  00000+0  78757-4 0  9990
2 56729  86.5727  91.9914 0002408  94.8963 265.2533 14.80203739 17160
IRIDIUM 179             
1 56730U 23068W   23255.55470120  .00000632  00000+0  79736-4 0  9997
2 56730  86.6738  92.6206 0002255  94.7128 265.4351 14.80203976 17162
